[{"OBJECT_NAME":"STARLINK-2121","OBJECT_ID":"2021-005BC","EPOCH":"2026-03-09T05:41:19.417056","MEAN_MOTION":15.30200308,"ECCENTRICITY":0.00014614,"INCLINATION":53.1616,"RA_OF_ASC_NODE":38.8073,"ARG_OF_PERICENTER":88.4147,"MEAN_ANOMALY":271.7021,"EPHEMERIS_TYPE":0,"CLASSIFICATION_TYPE":"U","NORAD_CAT_ID":47399,"ELEMENT_SET_NO":999,"REV_AT_EPOCH":28332,"BSTAR":2.675424e-5,"MEAN_MOTION_DOT":4.33e-6,"MEAN_MOTION_DDOT":0},{"OBJECT_NAME":"JILIN-1 GAOFEN 03D50","OBJECT_ID":"2022-167J","EPOCH":"2026-03-09T22:35:59.947584","MEAN_MOTION":15.32279726,"ECCENTRICITY":0.00065764,"INCLINATION":97.6731,"RA_OF_ASC_NODE":232.9458,"ARG_OF_PERICENTER":101.1473,"MEAN_ANOMALY":259.0507,"EPHEMERIS_TYPE":0,"CLASSIFICATION_TYPE":"U","NORAD_CAT_ID":54690,"ELEMENT_SET_NO":999,"REV_AT_EPOCH":18014,"BSTAR":0.00049467973,"MEAN_MOTION_DOT":0.00015359,"MEAN_MOTION_DDOT":0}]
